{
  "norad_id": 59888,
  "name": "STARLINK-31965",
  "history": [
    {
      "epoch": "2026-03-28T20:10:38.630496Z",
      "apogee_km": 483.7992863933978,
      "perigee_km": 482.17223974136414,
      "latitude_deg": -6.227671362628754e-05,
      "longitude_deg": -111.48901897409796,
      "height_km": 482.72754381639413,
      "semi_major_axis_km": 6861.122763067381,
      "eccentricity": 0.00011857,
      "inclination_deg": 43.0035,
      "raan_deg": 17.4274,
      "arg_perigee_deg": 272.4756,
      "mean_anomaly_deg": 87.5959,
      "mean_motion_rev_day": 15.27601151
    },
    {
      "epoch": "2026-03-29T04:01:24.939264Z",
      "apogee_km": 483.9036036560801,
      "perigee_km": 481.9468287120244,
      "latitude_deg": 9.113765137150641e-06,
      "longitude_deg": 128.6500721176063,
      "height_km": 482.5645063308747,
      "semi_major_axis_km": 6861.062216184052,
      "eccentricity": 0.0001426,
      "inclination_deg": 43.0038,
      "raan_deg": 15.5816,
      "arg_perigee_deg": 278.1002,
      "mean_anomaly_deg": 81.9688,
      "mean_motion_rev_day": 15.27621372
    },
    {
      "epoch": "2026-03-30T03:33:45.508896Z",
      "apogee_km": 484.0380189273192,
      "perigee_km": 481.9234224458023,
      "latitude_deg": 1.448251511428253e-05,
      "longitude_deg": 129.05845732210508,
      "height_km": 482.97219883064986,
      "semi_major_axis_km": 6861.1177206865605,
      "eccentricity": 0.0001541,
      "inclination_deg": 43.0041,
      "raan_deg": 10.0424,
      "arg_perigee_deg": 258.3079,
      "mean_anomaly_deg": 101.76,
      "mean_motion_rev_day": 15.27602835
    },
    {
      "epoch": "2026-03-30T11:24:32.686848Z",
      "apogee_km": 483.65346006063464,
      "perigee_km": 482.30840650099435,
      "latitude_deg": 2.8904123334355664e-06,
      "longitude_deg": 9.192928767802377,
      "height_km": 482.5886459152451,
      "semi_major_axis_km": 6861.117933280814,
      "eccentricity": 9.802e-05,
      "inclination_deg": 43.0059,
      "raan_deg": 8.1957,
      "arg_perigee_deg": 284.5786,
      "mean_anomaly_deg": 75.4957,
      "mean_motion_rev_day": 15.27602764
    },
    {
      "epoch": "2026-03-30T19:15:19.887264Z",
      "apogee_km": 483.6586153901826,
      "perigee_km": 482.45118283977627,
      "latitude_deg": -7.12708303211975e-07,
      "longitude_deg": -110.67298512392394,
      "height_km": 482.7915664477135,
      "semi_major_axis_km": 6861.19189911498,
      "eccentricity": 8.799e-05,
      "inclination_deg": 43.0021,
      "raan_deg": 6.3487,
      "arg_perigee_deg": 273.7822,
      "mean_anomaly_deg": 86.2929,
      "mean_motion_rev_day": 15.27578062
    }
  ]
}